{"type": "FeatureCollection", "features": [ {"type": "Feature", "properties": {"norad_id": 43622, "name": "BEIDOU-3 M13 (C32)", "group": "beidou", "lat": -56.475010497577294, "lon": -23.24622856672893, "alt_km": 21519.556912447693, "timestamp": "2025-12-18T23:35:49.325450+00:00", "meta": {"OBJECT_NAME": "BEIDOU-3 M13 (C32)", "OBJECT_ID": "2018-072A", "EPOCH": "2025-12-18T01:04:45.720768", "MEAN_MOTION": 1.86231064, "ECCENTRICITY": 0.00060078, "INCLINATION": 56.4641, "RA_OF_ASC_NODE": 68.6443, "ARG_OF_PERICENTER": 298.9487, "MEAN_ANOMALY": 61.0199, "EPHEMERIS_TYPE": 0, "CLASSIFICATION_TYPE": "U", "NORAD_CAT_ID": 43622, "ELEMENT_SET_NO": 999, "REV_AT_EPOCH": 4928, "BSTAR": 0, "MEAN_MOTION_DOT": -6.7e-07, "MEAN_MOTION_DDOT": 0}, "tle": {"line1": "1 43622U 18072A   25352.04497362 -.00000067  00000+0  00000+0 0  9999", "line2": "2 43622  56.4641  68.6443 0006007 298.9487  61.0199  1.86231064 49286"}}, "geometry": {"type": "Point", "coordinates": [-23.24622856672893, -56.475010497577294]}}, {"type": "Feature", "properties": {"norad_id": 43623, "name": "BEIDOU-3 M14 (C33)", "group": "beidou", "lat": -0.6422674050792451, "lon": 68.19692976885112, "alt_km": 21520.09042560278, "timestamp": "2025-12-18T23:35:49.325462+00:00", "meta": {"OBJECT_NAME": "BEIDOU-3 M14 (C33)", "OBJECT_ID": "2018-072B", "EPOCH": "2025-12-18T10:44:15.262368", "MEAN_MOTION": 1.8623104, "ECCENTRICITY": 0.00033898, "INCLINATION": 56.4661, "RA_OF_ASC_NODE": 68.625, "ARG_OF_PERICENTER": 331.3053, "MEAN_ANOMALY": 28.7068, "EPHEMERIS_TYPE": 0, "CLASSIFICATION_TYPE": "U", "NORAD_CAT_ID": 43623, "ELEMENT_SET_NO": 999, "REV_AT_EPOCH": 4928, "BSTAR": 0, "MEAN_MOTION_DOT": -6.3e-07, "MEAN_MOTION_DDOT": 0}, "tle": {"line1": "1 43623U 18072B   25352.44739887 -.00000063  00000+0  00000+0 0  9991", "line2": "2 43623  56.4661  68.6250 0003389 331.3053  28.7068  1.86231040 49285"}}, "geometry": {"type": "Point", "coordinates": [68.19692976885112, -0.6422674050792451]}}, {"type": "Feature", "properties": {"norad_id": 43647, "name": "BEIDOU-3 M16 (C35)", "group": "beidou", "lat": -51.09409394626469, "lon": -170.65422066821625, "alt_km": 21545.556870013366, "timestamp": "2025-12-18T23:35:49.325474+00:00", "meta": {"OBJECT_NAME": "BEIDOU-3 M16 (C35)", "OBJECT_ID": "2018-078A", "EPOCH": "2025-12-18T01:38:11.471712", "MEAN_MOTION": 1.86232421, "ECCENTRICITY": 0.00073225, "INCLINATION": 54.2571, "RA_OF_ASC_NODE": 306.335, "ARG_OF_PERICENTER": 19.7633, "MEAN_ANOMALY": 340.2526, "EPHEMERIS_TYPE": 0, "CLASSIFICATION_TYPE": "U", "NORAD_CAT_ID": 43647, "ELEMENT_SET_NO": 999, "REV_AT_EPOCH": 4878, "BSTAR": 0, "MEAN_MOTION_DOT": -8.5e-07, "MEAN_MOTION_DDOT": 0}, "tle": {"line1": "1 43647U 18078A   25352.06818833 -.00000085  00000+0  00000+0 0  9994", "line2": "2 43647  54.2571 306.3350 0007322  19.7633 340.2526  1.86232421 48781"}}, "geometry": {"type": "Point", "coordinates": [-170.65422066821625, -51.09409394626469]}}, {"type": "Feature", "properties": {"norad_id": 43648, "name": "BEIDOU-3 M15 (C34)", "group": "beidou", "lat": 10.57720952765043, "lon": 118.55589621767987, "alt_km": 21535.99167748341, "timestamp": "2025-12-18T23:35:49.325485+00:00", "meta": {"OBJECT_NAME": "BEIDOU-3 M15 (C34)", "OBJECT_ID": "2018-078B", "EPOCH": "2025-12-18T04:44:16.550592", "MEAN_MOTION": 1.86232281, "ECCENTRICITY": 0.00039569, "INCLINATION": 54.2524, "RA_OF_ASC_NODE": 306.3307, "ARG_OF_PERICENTER": 20.2527, "MEAN_ANOMALY": 339.7508, "EPHEMERIS_TYPE": 0, "CLASSIFICATION_TYPE": "U", "NORAD_CAT_ID": 43648, "ELEMENT_SET_NO": 999, "REV_AT_EPOCH": 4880, "BSTAR": 0, "MEAN_MOTION_DOT": -8.5e-07, "MEAN_MOTION_DDOT": 0}, "tle": {"line1": "1 43648U 18078B   25352.19741378 -.00000085  00000+0  00000+0 0  9998", "line2": "2 43648  54.2524 306.3307 0003956  20.2527 339.7508  1.86232281 48800"}}, "geometry": {"type": "Point", "coordinates": [118.55589621767987, 10.57720952765043]}}, {"type": "Feature", "properties": {"norad_id": 43683, "name": "BEIDOU-3 G1 (C59)", "group": "beidou", "lat": 2.2714103314391187, "lon": -138.13436609139177, "alt_km": 35784.33746874423, "timestamp": "2025-12-18T23:35:49.325497+00:00", "meta": {"OBJECT_NAME": "BEIDOU-3 G1 (C59)", "OBJECT_ID": "2018-085A", "EPOCH": "2025-12-18T15:40:20.515008", "MEAN_MOTION": 1.00269184, "ECCENTRICITY": 0.00016338, "INCLINATION": 2.622, "RA_OF_ASC_NODE": 102.7934, "ARG_OF_PERICENTER": 48.1042, "MEAN_ANOMALY": 311.7383, "EPHEMERIS_TYPE": 0, "CLASSIFICATION_TYPE": "U", "NORAD_CAT_ID": 43683, "ELEMENT_SET_NO": 999, "REV_AT_EPOCH": 2625, "BSTAR": 0, "MEAN_MOTION_DOT": -2.55e-06, "MEAN_MOTION_DDOT": 0}, "tle": {"line1": "1 43683U 18085A   25352.65301522 -.00000255  00000+0  00000+0 0  9998", "line2": "2 43683   2.6220 102.7934 0001633  48.1042 311.7383  1.00269184 26258"}}, "geometry": {"type": "Point", "coordinates": [-138.13436609139177, 2.2714103314391187]}}, {"type": "Feature", "properties": {"norad_id": 43706, "name": "BEIDOU-3 M17 (C36)", "group": "beidou", "lat": 44.86031275867732, "lon": -125.58736221792664, "alt_km": 21529.50121426964, "timestamp": "2025-12-18T23:35:49.325510+00:00", "meta": {"OBJECT_NAME": "BEIDOU-3 M17 (C36)", "OBJECT_ID": "2018-093A", "EPOCH": "2025-12-15T07:56:44.520576", "MEAN_MOTION": 1.86228523, "ECCENTRICITY": 0.00061371, "INCLINATION": 54.1729, "RA_OF_ASC_NODE": 188.5337, "ARG_OF_PERICENTER": 307.6759, "MEAN_ANOMALY": 184.25, "EPHEMERIS_TYPE": 0, "CLASSIFICATION_TYPE": "U", "NORAD_CAT_ID": 43706, "ELEMENT_SET_NO": 999, "REV_AT_EPOCH": 4811, "BSTAR": 0, "MEAN_MOTION_DOT": 1.13e-06, "MEAN_MOTION_DDOT": 0}, "tle": {"line1": "1 43706U 18093A   25349.33107084  .00000113  00000+0  00000+0 0  9993", "line2": "2 43706  54.1729 188.5337 0006137 307.6759 184.2500  1.86228523 48110"}}, "geometry": {"type": "Point", "coordinates": [-125.58736221792664, 44.86031275867732]}}, {"type": "Feature", "properties": {"norad_id": 43707, "name": "BEIDOU-3 M18 (C37)", "group": "beidou", "lat": 21.32150199777597, "lon": -7.978784128446663, "alt_km": 21542.45651646521, "timestamp": "2025-12-18T23:35:49.325521+00:00", "meta": {"OBJECT_NAME": "BEIDOU-3 M18 (C37)", "OBJECT_ID": "2018-093B", "EPOCH": "2025-12-16T14:33:42.784416", "MEAN_MOTION": 1.8622677, "ECCENTRICITY": 0.00063186, "INCLINATION": 54.1735, "RA_OF_ASC_NODE": 188.4822, "ARG_OF_PERICENTER": 353.2257, "MEAN_ANOMALY": 6.8349, "EPHEMERIS_TYPE": 0, "CLASSIFICATION_TYPE": "U", "NORAD_CAT_ID": 43707, "ELEMENT_SET_NO": 999, "REV_AT_EPOCH": 4813, "BSTAR": 0, "MEAN_MOTION_DOT": 1.15e-06, "MEAN_MOTION_DDOT": 0}, "tle": {"line1": "1 43707U 18093B   25350.60674519  .00000115  00000+0  00000+0 0  9990", "line2": "2 43707  54.1735 188.4822 0006318 353.2257   6.8349  1.86226770 48131"}}, "geometry": {"type": "Point", "coordinates": [-7.978784128446663, 21.32150199777597]}}, {"type": "Feature", "properties": {"norad_id": 44204, "name": "BEIDOU-3 IGSO-1 (C38)", "group": "beidou", "lat": 21.67893778319007, "lon": -154.56949272965318, "alt_km": 35747.634167633245, "timestamp": "2025-12-18T23:35:49.325533+00:00", "meta": {"OBJECT_NAME": "BEIDOU-3 IGSO-1 (C38)", "OBJECT_ID": "2019-023A", "EPOCH": "2025-11-19T14:15:02.708640", "MEAN_MOTION": 1.00252177, "ECCENTRICITY": 0.0026966, "INCLINATION": 58.4003, "RA_OF_ASC_NODE": 39.8168, "ARG_OF_PERICENTER": 221.2202, "MEAN_ANOMALY": 126.9723, "EPHEMERIS_TYPE": 0, "CLASSIFICATION_TYPE": "U", "NORAD_CAT_ID": 44204, "ELEMENT_SET_NO": 999, "REV_AT_EPOCH": 510, "BSTAR": 0, "MEAN_MOTION_DOT": -2.26e-06, "MEAN_MOTION_DDOT": 0}, "tle": {"line1": "1 44204U 19023A   25323.59378135 -.00000226  00000+0  00000+0 0  9994", "line2": "2 44204  58.4003  39.8168 0026966 221.2202 126.9723  1.00252177  5102"}}, "geometry": {"type": "Point", "coordinates": [-154.56949272965318, 21.67893778319007]}}, {"type": "Feature", "properties": {"norad_id": 44231, "name": "BEIDOU-2 G8 (C01)", "group": "beidou", "lat": 0.7816314675174794, "lon": -133.87059276713862, "alt_km": 35794.76174550474, "timestamp": "2025-12-18T23:35:49.325550+00:00", "meta": {"OBJECT_NAME": "BEIDOU-2 G8 (C01)", "OBJECT_ID": "2019-027A", "EPOCH": "2025-12-18T15:41:42.882720", "MEAN_MOTION": 1.0027653, "ECCENTRICITY": 0.0008207, "INCLINATION": 1.6761, "RA_OF_ASC_NODE": 74.7645, "ARG_OF_PERICENTER": 258.5961, "MEAN_ANOMALY": 133.9994, "EPHEMERIS_TYPE": 0, "CLASSIFICATION_TYPE": "U", "NORAD_CAT_ID": 44231, "ELEMENT_SET_NO": 999, "REV_AT_EPOCH": 2427, "BSTAR": 0, "MEAN_MOTION_DOT": -2.23e-06, "MEAN_MOTION_DDOT": 0}, "tle": {"line1": "1 44231U 19027A   25352.65396855 -.00000223  00000+0  00000+0 0  9993", "line2": "2 44231   1.6761  74.7645 0008207 258.5961 133.9994  1.00276530 24270"}}, "geometry": {"type": "Point", "coordinates": [-133.87059276713862, 0.7816314675174794]}}, {"type": "Feature", "properties": {"norad_id": 44337, "name": "BEIDOU-3 IGSO-2 (C39)", "group": "beidou", "lat": 32.344201195046566, "lon": -173.42226719529285, "alt_km": 35933.0408079661, "timestamp": "2025-12-18T23:35:49.325562+00:00", "meta": {"OBJECT_NAME": "BEIDOU-3 IGSO-2 (C39)", "OBJECT_ID": "2019-035A", "EPOCH": "2025-12-18T08:43:59.136096", "MEAN_MOTION": 1.00269659, "ECCENTRICITY": 0.0037505, "INCLINATION": 55.2271, "RA_OF_ASC_NODE": 160.4519, "ARG_OF_PERICENTER": 202.287, "MEAN_ANOMALY": 334.9264, "EPHEMERIS_TYPE": 0, "CLASSIFICATION_TYPE": "U", "NORAD_CAT_ID": 44337, "ELEMENT_SET_NO": 999, "REV_AT_EPOCH": 2385, "BSTAR": 0, "MEAN_MOTION_DOT": -4.9e-07, "MEAN_MOTION_DDOT": 0}, "tle": {"line1": "1 44337U 19035A   25352.36387889 -.00000049  00000+0  00000+0 0  9990", "line2": "2 44337  55.2271 160.4519 0037505 202.2870 334.9264  1.00269659 23859"}}, "geometry": {"type": "Point", "coordinates": [-173.42226719529285, 32.344201195046566]}}]}